{
    "links": {
        "self": "http://www.neowsapp.com/rest/v1/neo/3799804?api_key=iIulBulltgU6a56xZRHN4H3l9WmuAYTsLGpBGhQ2"
    },
    "id": "3799804",
    "neo_reference_id": "3799804",
    "name": "(2018 ED1)",
    "designation": "2018 ED1",
    "nasa_jpl_url": "http://ssd.jpl.nasa.gov/sbdb.cgi?sstr=3799804",
    "absolute_magnitude_h": 25.8,
    "estimated_diameter": {
        "kilometers": {
            "estimated_diameter_min": 0.0183888672,
            "estimated_diameter_max": 0.0411187571
        },
        "meters": {
            "estimated_diameter_min": 18.388867207,
            "estimated_diameter_max": 41.1187571041
        },
        "miles": {
            "estimated_diameter_min": 0.0114263088,
            "estimated_diameter_max": 0.0255500032
        },
        "feet": {
            "estimated_diameter_min": 60.3309310875,
            "estimated_diameter_max": 134.9040630575
        }
    },
    "is_potentially_hazardous_asteroid": false,
    "close_approach_data": [
        {
            "close_approach_date": "2018-03-03",
            "close_approach_date_full": "2018-Mar-03 12:21",
            "epoch_date_close_approach": 1520079660000,
            "relative_velocity": {
                "kilometers_per_second": "11.824461516",
                "kilometers_per_hour": "42568.0614574913",
                "miles_per_hour": "26450.1379650728"
            },
            "miss_distance": {
                "astronomical": "0.0083639713",
                "lunar": "3.2535848357",
                "kilometers": "1251232.291221131",
                "miles": "777479.6935523678"
            },
            "orbiting_body": "Earth"
        },
        {
            "close_approach_date": "2018-03-03",
            "close_approach_date_full": "2018-Mar-03 23:20",
            "epoch_date_close_approach": 1520119200000,
            "relative_velocity": {
                "kilometers_per_second": "11.9874170087",
                "kilometers_per_hour": "43154.7012311843",
                "miles_per_hour": "26814.6531066767"
            },
            "miss_distance": {
                "astronomical": "0.0080440782",
                "lunar": "3.1291464198",
                "kilometers": "1203376.964833434",
                "miles": "747743.7726080292"
            },
            "orbiting_body": "Moon"
        },
        {
            "close_approach_date": "2020-03-11",
            "close_approach_date_full": "2020-Mar-11 23:20",
            "epoch_date_close_approach": 1583968800000,
            "relative_velocity": {
                "kilometers_per_second": "15.079475777",
                "kilometers_per_hour": "54286.1127971726",
                "miles_per_hour": "33731.2793655543"
            },
            "miss_distance": {
                "astronomical": "0.1008861576",
                "lunar": "39.2447153064",
                "kilometers": "15092354.289444312",
                "miles": "9377954.0939510256"
            },
            "orbiting_body": "Earth"
        },
        {
            "close_approach_date": "2022-03-19",
            "close_approach_date_full": "2022-Mar-19 20:00",
            "epoch_date_close_approach": 1647720000000,
            "relative_velocity": {
                "kilometers_per_second": "18.7357339835",
                "kilometers_per_hour": "67448.6423407235",
                "miles_per_hour": "41909.9633477679"
            },
            "miss_distance": {
                "astronomical": "0.2243145008",
                "lunar": "87.2583408112",
                "kilometers": "33556971.529793296",
                "miles": "20851335.2193516448"
            },
            "orbiting_body": "Earth"
        }
    ],
    "orbital_data": {
        "orbit_id": "4",
        "orbit_determination_date": "2018-03-18 06:43:36",
        "first_observation_date": "2018-03-07",
        "last_observation_date": "2018-03-16",
        "data_arc_in_days": 9,
        "observations_used": 31,
        "orbit_uncertainty": "8",
        "minimum_orbit_intersection": ".00374429",
        "jupiter_tisserand_invariant": "4.221",
        "epoch_osculation": "2458187.5",
        "eccentricity": ".4937405574302084",
        "semi_major_axis": "1.597041873023522",
        "inclination": "2.502848000851341",
        "ascending_node_longitude": "158.4783580356846",
        "orbital_period": "737.1788753069335",
        "perihelion_distance": ".8085175283975042",
        "perihelion_argument": "301.1862832281856",
        "aphelion_distance": "2.38556621764954",
        "perihelion_time": "2458136.928659628158",
        "mean_anomaly": "24.69642463137994",
        "mean_motion": ".4883482314249843",
        "equinox": "J2000",
        "orbit_class": {
            "orbit_class_type": "APO",
            "orbit_class_description": "Near-Earth asteroid orbits which cross the Earth’s orbit similar to that of 1862 Apollo",
            "orbit_class_range": "a (semi-major axis) > 1.0 AU; q (perihelion) < 1.017 AU"
        }
    },
    "is_sentry_object": false
}